{
  "norad_id": 62594,
  "name": "STARLINK-11416 [DTC]",
  "history": [
    {
      "epoch": "2026-05-05T11:36:27.861120Z",
      "apogee_km": 338.76173929459947,
      "perigee_km": 332.41324141651785,
      "latitude_deg": 3.716095724976356e-05,
      "longitude_deg": 104.76806570825599,
      "height_km": 335.49272616017754,
      "semi_major_axis_km": 6713.724490355558,
      "eccentricity": 0.0004728,
      "inclination_deg": 42.9928,
      "raan_deg": 142.2421,
      "arg_perigee_deg": 92.5634,
      "mean_anomaly_deg": 267.5778,
      "mean_motion_rev_day": 15.78183466
    },
    {
      "epoch": "2026-05-06T20:00:01.999008Z",
      "apogee_km": 337.54445265449885,
      "perigee_km": 331.93383077525414,
      "latitude_deg": 36.96296088432748,
      "longitude_deg": 95.93649723287076,
      "height_km": 333.78738705102836,
      "semi_major_axis_km": 6712.876141714876,
      "eccentricity": 0.0004179,
      "inclination_deg": 42.9933,
      "raan_deg": 134.0164,
      "arg_perigee_deg": 108.3843,
      "mean_anomaly_deg": 10.1026,
      "mean_motion_rev_day": 15.78482643
    },
    {
      "epoch": "2026-05-07T16:45:39.479040Z",
      "apogee_km": 337.9654680384965,
      "perigee_km": 330.6006007767446,
      "latitude_deg": -2.4818925182160374e-05,
      "longitude_deg": 11.785757907240777,
      "height_km": 334.7858556685514,
      "semi_major_axis_km": 6712.420034407621,
      "eccentricity": 0.0005486,
      "inclination_deg": 42.9932,
      "raan_deg": 128.7412,
      "arg_perigee_deg": 101.6044,
      "mean_anomaly_deg": 258.5442,
      "mean_motion_rev_day": 15.78643532
    },
    {
      "epoch": "2026-05-08T09:27:47.355840Z",
      "apogee_km": 337.0501976290552,
      "perigee_km": 330.7596719277799,
      "latitude_deg": -4.0390682748103257e-05,
      "longitude_deg": 116.32358465681082,
      "height_km": 335.2030544705557,
      "semi_major_axis_km": 6712.041934778417,
      "eccentricity": 0.0004686,
      "inclination_deg": 42.993,
      "raan_deg": 124.4978,
      "arg_perigee_deg": 119.1919,
      "mean_anomaly_deg": 240.942,
      "mean_motion_rev_day": 15.78776925
    },
    {
      "epoch": "2026-05-09T20:22:52.276224Z",
      "apogee_km": 336.37626823297524,
      "perigee_km": 329.76572835465504,
      "latitude_deg": 4.081446078744017e-05,
      "longitude_deg": -57.75796638489787,
      "height_km": 334.94567485562493,
      "semi_major_axis_km": 6711.207998293815,
      "eccentricity": 0.0004925,
      "inclination_deg": 42.992,
      "raan_deg": 115.6207,
      "arg_perigee_deg": 129.6796,
      "mean_anomaly_deg": 230.451,
      "mean_motion_rev_day": 15.79071203
    },
    {
      "epoch": "2026-05-10T08:31:30.234720Z",
      "apogee_km": 335.6688040092058,
      "perigee_km": 329.8182583621174,
      "latitude_deg": 2.283039423194777e-05,
      "longitude_deg": 116.49652205240716,
      "height_km": 335.0904524464767,
      "semi_major_axis_km": 6710.880531185661,
      "eccentricity": 0.0004359,
      "inclination_deg": 42.9951,
      "raan_deg": 112.5321,
      "arg_perigee_deg": 151.8771,
      "mean_anomaly_deg": 208.2336,
      "mean_motion_rev_day": 15.79186784
    },
    {
      "epoch": "2026-05-11T14:52:56.665920Z",
      "apogee_km": 335.97690241374767,
      "perigee_km": 328.45727961935427,
      "latitude_deg": -1.8747245493301027e-05,
      "longitude_deg": 12.16981524751846,
      "height_km": 334.6337904552627,
      "semi_major_axis_km": 6710.35409101655,
      "eccentricity": 0.0005603,
      "inclination_deg": 42.991,
      "raan_deg": 104.8123,
      "arg_perigee_deg": 134.8777,
      "mean_anomaly_deg": 225.2549,
      "mean_motion_rev_day": 15.79372623
    }
  ]
}